[{"OBJECT_NAME":"YAOGAN-30 06C","OBJECT_ID":"2019-045C","EPOCH":"2026-03-09T20:24:37.552032","MEAN_MOTION":15.02172666,"ECCENTRICITY":0.00010812,"INCLINATION":34.9925,"RA_OF_ASC_NODE":214.7382,"ARG_OF_PERICENTER":261.6749,"MEAN_ANOMALY":98.3837,"EPHEMERIS_TYPE":0,"CLASSIFICATION_TYPE":"U","NORAD_CAT_ID":44451,"ELEMENT_SET_NO":999,"REV_AT_EPOCH":36160,"BSTAR":0.00032595529,"MEAN_MOTION_DOT":4.352e-5,"MEAN_MOTION_DDOT":0},{"OBJECT_NAME":"OPS 6553","OBJECT_ID":"1982-041C","EPOCH":"2026-03-09T22:03:24.080544","MEAN_MOTION":15.05429153,"ECCENTRICITY":0.00081122,"INCLINATION":95.9935,"RA_OF_ASC_NODE":204.8515,"ARG_OF_PERICENTER":276.7874,"MEAN_ANOMALY":83.2434,"EPHEMERIS_TYPE":0,"CLASSIFICATION_TYPE":"U","NORAD_CAT_ID":13172,"ELEMENT_SET_NO":999,"REV_AT_EPOCH":10072,"BSTAR":0.00048705,"MEAN_MOTION_DOT":6.956e-5,"MEAN_MOTION_DDOT":0}]
